{
  "type": "FeatureCollection",
  "features": [
    {
      "type": "Feature",
      "properties": {
        "norad_id": 34350,
        "name": "IRIDIUM 33 DEB",
        "group": "iridium-33-debris",
        "lat": 52.06449303960357,
        "lon": 3.5390354236566384,
        "alt_km": 726.2535096447609,
        "timestamp": "2025-12-21T22:41:41.844350+00:00",
        "meta_object_name": "IRIDIUM 33 DEB",
        "meta_object_id": "1997-051ES",
        "meta_epoch": "2025-12-21T13:03:35.322048",
        "meta_mean_motion": 14.45405822,
        "meta_eccentricity": 0.00233994,
        "meta_inclination": 86.3272,
        "meta_ra_of_asc_node": 358.9864,
        "meta_arg_of_pericenter": 108.1972,
        "meta_mean_anomaly": 16.6332,
        "meta_ephemeris_type": 0,
        "meta_classification_type": "U",
        "meta_norad_cat_id": 34350,
        "meta_element_set_no": 999,
        "meta_rev_at_epoch": 88420,
        "meta_bstar": 0.00025936017,
        "meta_mean_motion_dot": 9.35e-06,
        "meta_mean_motion_ddot": 0,
        "tle_line1": "1 34350U 97051ES  25355.54415882  .00000935  00000+0  25936-3 0  9998",
        "tle_line2": "2 34350  86.3272 358.9864 0023399 108.1972  16.6332 14.45405822884200"
      },
      "geometry": {
        "type": "Point",
        "coordinates": [
          3.5390354236566384,
          52.06449303960357
        ]
      }
    },
    {
      "type": "Feature",
      "properties": {
        "norad_id": 34366,
        "name": "IRIDIUM 33 DEB",
        "group": "iridium-33-debris",
        "lat": -51.76910715517878,
        "lon": 40.68622070978716,
        "alt_km": 734.8284766166898,
        "timestamp": "2025-12-21T22:41:41.844362+00:00",
        "meta_object_name": "IRIDIUM 33 DEB",
        "meta_object_id": "1997-051FJ",
        "meta_epoch": "2025-12-21T03:14:39.196032",
        "meta_mean_motion": 14.54116771,
        "meta_eccentricity": 0.00229982,
        "meta_inclination": 86.369,
        "meta_ra_of_asc_node": 45.662,
        "meta_arg_of_pericenter": 113.5249,
        "meta_mean_anomaly": 274.8967,
        "meta_ephemeris_type": 0,
        "meta_classification_type": "U",
        "meta_norad_cat_id": 34366,
        "meta_element_set_no": 999,
        "meta_rev_at_epoch": 88304,
        "meta_bstar": 0.00059167018,
        "meta_mean_motion_dot": 2.529e-05,
        "meta_mean_motion_ddot": 0,
        "tle_line1": "1 34366U 97051FJ  25355.13517588  .00002529  00000+0  59167-3 0  9990",
        "tle_line2": "2 34366  86.3690  45.6620 0022998 113.5249 274.8967 14.54116771883047"
      },
      "geometry": {
        "type": "Point",
        "coordinates": [
          40.68622070978716,
          -51.76910715517878
        ]
      }
    },
    {
      "type": "Feature",
      "properties": {
        "norad_id": 34375,
        "name": "IRIDIUM 33 DEB",
        "group": "iridium-33-debris",
        "lat": 70.48403922302025,
        "lon": -11.148600996586811,
        "alt_km": 751.9918836993866,
        "timestamp": "2025-12-21T22:41:41.844373+00:00",
        "meta_object_name": "IRIDIUM 33 DEB",
        "meta_object_id": "1997-051FT",
        "meta_epoch": "2025-12-21T00:46:06.767328",
        "meta_mean_motion": 14.18006296,
        "meta_eccentricity": 0.01037011,
        "meta_inclination": 86.4323,
        "meta_ra_of_asc_node": 179.3579,
        "meta_arg_of_pericenter": 100.8025,
        "meta_mean_anomaly": 27.2657,
        "meta_ephemeris_type": 0,
        "meta_classification_type": "U",
        "meta_norad_cat_id": 34375,
        "meta_element_set_no": 999,
        "meta_rev_at_epoch": 86829,
        "meta_bstar": 0.00030848,
        "meta_mean_motion_dot": 6.86e-06,
        "meta_mean_motion_ddot": 0,
        "tle_line1": "1 34375U 97051FT  25355.03202277  .00000686  00000+0  30848-3 0  9992",
        "tle_line2": "2 34375  86.4323 179.3579 0103701 100.8025  27.2657 14.18006296868298"
      },
      "geometry": {
        "type": "Point",
        "coordinates": [
          -11.148600996586811,
          70.48403922302025
        ]
      }
    },
    {
      "type": "Feature",
      "properties": {
        "norad_id": 34376,
        "name": "IRIDIUM 33 DEB",
        "group": "iridium-33-debris",
        "lat": 21.504420835021588,
        "lon": -179.06133361339707,
        "alt_km": 666.0329470140268,
        "timestamp": "2025-12-21T22:41:41.844383+00:00",
        "meta_object_name": "IRIDIUM 33 DEB",
        "meta_object_id": "1997-051FU",
        "meta_epoch": "2025-12-21T12:07:24.797568",
        "meta_mean_motion": 14.62675501,
        "meta_eccentricity": 0.00281411,
        "meta_inclination": 86.2976,
        "meta_ra_of_asc_node": 2.5986,
        "meta_arg_of_pericenter": 137.7647,
        "meta_mean_anomaly": 222.5739,
        "meta_ephemeris_type": 0,
        "meta_classification_type": "U",
        "meta_norad_cat_id": 34376,
        "meta_element_set_no": 999,
        "meta_rev_at_epoch": 88135,
        "meta_bstar": 0.0010610953,
        "meta_mean_motion_dot": 5.451e-05,
        "meta_mean_motion_ddot": 0,
        "tle_line1": "1 34376U 97051FU  25355.50514812  .00005451  00000+0  10611-2 0  9996",
        "tle_line2": "2 34376  86.2976   2.5986 0028141 137.7647 222.5739 14.62675501881356"
      },
      "geometry": {
        "type": "Point",
        "coordinates": [
          -179.06133361339707,
          21.504420835021588
        ]
      }
    },
    {
      "type": "Feature",
      "properties": {
        "norad_id": 34486,
        "name": "IRIDIUM 33 DEB",
        "group": "iridium-33-debris",
        "lat": 38.813873814645916,
        "lon": 10.683265764664819,
        "alt_km": 569.3123017025264,
        "timestamp": "2025-12-21T22:41:41.844394+00:00",
        "meta_object_name": "IRIDIUM 33 DEB",
        "meta_object_id": "1997-051GB",
        "meta_epoch": "2025-12-21T13:27:11.414592",
        "meta_mean_motion": 14.96156216,
        "meta_eccentricity": 0.00139233,
        "meta_inclination": 86.3924,
        "meta_ra_of_asc_node": 7.952,
        "meta_arg_of_pericenter": 87.2037,
        "meta_mean_anomaly": 39.2111,
        "meta_ephemeris_type": 0,
        "meta_classification_type": "U",
        "meta_norad_cat_id": 34486,
        "meta_element_set_no": 999,
        "meta_rev_at_epoch": 89118,
        "meta_bstar": 0.0016334662,
        "meta_mean_motion_dot": 0.00018477,
        "meta_mean_motion_ddot": 0,
        "tle_line1": "1 34486U 97051GB  25355.56054878  .00018477  00000+0  16335-2 0  9996",
        "tle_line2": "2 34486  86.3924   7.9520 0013923  87.2037  39.2111 14.96156216891182"
      },
      "geometry": {
        "type": "Point",
        "coordinates": [
          10.683265764664819,
          38.813873814645916
        ]
      }
    },
    {
      "type": "Feature",
      "properties": {
        "norad_id": 34487,
        "name": "IRIDIUM 33 DEB",
        "group": "iridium-33-debris",
        "lat": 71.6590490965428,
        "lon": 177.29045839738163,
        "alt_km": 717.620745179428,
        "timestamp": "2025-12-21T22:41:41.844404+00:00",
        "meta_object_name": "IRIDIUM 33 DEB",
        "meta_object_id": "1997-051GC",
        "meta_epoch": "2025-12-21T00:51:13.870080",
        "meta_mean_motion": 14.43225793,
        "meta_eccentricity": 0.00332106,
        "meta_inclination": 86.343,
        "meta_ra_of_asc_node": 8.8054,
        "meta_arg_of_pericenter": 102.5675,
        "meta_mean_anomaly": 320.0917,
        "meta_ephemeris_type": 0,
        "meta_classification_type": "U",
        "meta_norad_cat_id": 34487,
        "meta_element_set_no": 999,
        "meta_rev_at_epoch": 88368,
        "meta_bstar": 0.00013015301,
        "meta_mean_motion_dot": 4.61e-06,
        "meta_mean_motion_ddot": 0,
        "tle_line1": "1 34487U 97051GC  25355.03557720  .00000461  00000+0  13015-3 0  9990",
        "tle_line2": "2 34487  86.3430   8.8054 0033210 102.5675 320.0917 14.43225793883687"
      },
      "geometry": {
        "type": "Point",
        "coordinates": [
          177.29045839738163,
          71.6590490965428
        ]
      }
    },
    {
      "type": "Feature",
      "properties": {
        "norad_id": 34488,
        "name": "IRIDIUM 33 DEB",
        "group": "iridium-33-debris",
        "lat": 84.11823362456728,
        "lon": -20.15710828211102,
        "alt_km": 459.23044980961186,
        "timestamp": "2025-12-21T22:41:41.844414+00:00",
        "meta_object_name": "IRIDIUM 33 DEB",
        "meta_object_id": "1997-051GD",
        "meta_epoch": "2025-12-20T21:13:54.490080",
        "meta_mean_motion": 15.31302202,
        "meta_eccentricity": 0.0010948,
        "meta_inclination": 86.3254,
        "meta_ra_of_asc_node": 301.7725,
        "meta_arg_of_pericenter": 38.0894,
        "meta_mean_anomaly": 322.1127,
        "meta_ephemeris_type": 0,
        "meta_classification_type": "U",
        "meta_norad_cat_id": 34488,
        "meta_element_set_no": 999,
        "meta_rev_at_epoch": 89364,
        "meta_bstar": 0.0030791,
        "meta_mean_motion_dot": 0.00094223,
        "meta_mean_motion_ddot": 0,
        "tle_line1": "1 34488U 97051GD  25354.88465845  .00094223  00000+0  30791-2 0  9997",
        "tle_line2": "2 34488  86.3254 301.7725 0010948  38.0894 322.1127 15.31302202893643"
      },
      "geometry": {
        "type": "Point",
        "coordinates": [
          -20.15710828211102,
          84.11823362456728
        ]
      }
    }
  ]
}